[{"OBJECT_NAME":"FLOCK 4H-11","OBJECT_ID":"2025-276BA","EPOCH":"2026-03-09T17:03:35.203104","MEAN_MOTION":15.19866616,"ECCENTRICITY":0.00029648,"INCLINATION":97.4275,"RA_OF_ASC_NODE":144.0652,"ARG_OF_PERICENTER":29.2184,"MEAN_ANOMALY":330.9216,"EPHEMERIS_TYPE":0,"CLASSIFICATION_TYPE":"U","NORAD_CAT_ID":66714,"ELEMENT_SET_NO":999,"REV_AT_EPOCH":1532,"BSTAR":0.0004210568,"MEAN_MOTION_DOT":8.971e-5,"MEAN_MOTION_DDOT":0},{"OBJECT_NAME":"NOAA 16 DEB","OBJECT_ID":"2000-055DS","EPOCH":"2026-03-09T10:20:12.139584","MEAN_MOTION":15.17502784,"ECCENTRICITY":0.00045067,"INCLINATION":98.9649,"RA_OF_ASC_NODE":299.1853,"ARG_OF_PERICENTER":45.4311,"MEAN_ANOMALY":314.7285,"EPHEMERIS_TYPE":0,"CLASSIFICATION_TYPE":"U","NORAD_CAT_ID":41213,"ELEMENT_SET_NO":999,"REV_AT_EPOCH":53413,"BSTAR":0.0096847597,"MEAN_MOTION_DOT":0.00199382,"MEAN_MOTION_DDOT":0}]
